{"type":"Feature","properties":{"MUN":"SEASIDE PARK BORO","COUNTY":"OCEAN","MUN_LABEL":"Seaside Park Borough","MUN_TYPE":"Borough","NAME":"Seaside Park Borough","GNIS_NAME":"Borough of Seaside Park"},"geometry":{"type":"Polygon","coordinates":[[[-74.0819108,39.9378712],[-74.0706007,39.9367659],[-74.070602,39.9367591],[-74.0709213,39.9353995],[-74.0711166,39.9345463],[-74.0712205,39.9342849],[-74.0713702,39.9338602],[-74.0714281,39.9336045],[-74.0715167,39.9331284],[-74.0715455,39.9328136],[-74.0715889,39.9324141],[-74.0716537,39.9320757],[-74.071776,39.9317336],[-74.0718824,39.9314742],[-74.0720847,39.9308273],[-74.0722249,39.9302667],[-74.0722701,39.9299893],[-74.0723494,39.9293774],[-74.0724311,39.9287733],[-74.0724995,39.9284704],[-74.0726317,39.9279788],[-74.0727339,39.9275697],[-74.0729566,39.9267102],[-74.073232,39.9258116],[-74.073455,39.9250919],[-74.0735353,39.9247319],[-74.0735607,39.9245632],[-74.0735527,39.9245165],[-74.0735854,39.9243427],[-74.0735912,39.9243289],[-74.0735986,39.9239172],[-74.0736642,39.9234528],[-74.0738275,39.922814],[-74.0738835,39.9223495],[-74.0739671,39.9217215],[-74.0741096,39.9213206],[-74.0745198,39.9201697],[-74.0747689,39.9193267],[-74.0750147,39.9186161],[-74.075004,39.9185558],[-74.0750071,39.9181986],[-74.0750826,39.9179134],[-74.0751653,39.9176281],[-74.0752075,39.9175239],[-74.0752272,39.9166443],[-74.0754097,39.9160205],[-74.0757714,39.9149784],[-74.0757732,39.9149188],[-74.0758245,39.9145488],[-74.0758551,39.9143525],[-74.0758954,39.9141788],[-74.0759135,39.9141501],[-74.0760051,39.9134167],[-74.0761427,39.9130082],[-74.0762492,39.9127277],[-74.076259,39.9126748],[-74.0776994,39.9128212],[-74.0798396,39.9130387],[-74.0823756,39.9133219],[-74.0832393,39.9134119],[-74.0848311,39.9135601],[-74.0872371,39.9137839],[-74.0872277,39.9138491],[-74.0864516,39.919224],[-74.0850641,39.9286014],[-74.0836328,39.9380279],[-74.0836311,39.9380392],[-74.0819108,39.9378712]]]}}
